NORAD_CAT_ID,OBJECT_NAME,OBJECT_TYPE,EPOCH,MEAN_MOTION,ECCENTRICITY,INCLINATION,RA_OF_ASC_NODE,ARG_OF_PERICENTER,MEAN_ANOMALY,BSTAR,MEAN_MOTION_DOT,MEAN_MOTION_DDOT,TLE_LINE0,TLE_LINE1,TLE_LINE2,SEMIMAJOR_AXIS,PERIOD,APOGEE,PERIGEE,DECAYED
53886.0,STARLINK-5028,PAYLOAD,2023-02-14 02:46:06,15.08853627,3.11e-05,53.2178,310.3135,177.6584,182.4409,0.00020157,2.923e-05,0.0,0 STARLINK-5028,1 53886U 22119A   23045.11534775  .00002923  00000-0  20157-3 0  9996,2 53886  53.2178 310.3135 0000311 177.6584 182.4409 15.08853627 22240,6917.839,95.437,539.919,539.489,0.0
53886.0,STARLINK-5028,PAYLOAD,2023-02-14 10:43:03,15.08834169,3.43e-05,53.2177,308.826,63.4562,296.6466,3.9228e-05,3.37e-06,0.0,0 STARLINK-5028,1 53886U 22119A   23045.44656690  .00000337  00000-0  39228-4 0  9990,2 53886  53.2177 308.8260 0000343  63.4562 296.6466 15.08834169 22299,6917.898,95.438,540.0,539.526,0.0
53886.0,STARLINK-5028,PAYLOAD,2023-02-14 21:50:45,15.08826164,8.67e-05,53.2172,306.7468,68.1597,291.9488,0.00011332,1.516e-05,0.0,0 STARLINK-5028,1 53886U 22119A   23045.91025407  .00001516  00000-0  11332-3 0  9993,2 53886  53.2172 306.7468 0000867  68.1597 291.9488 15.08826164 22784,6917.923,95.438,540.387,539.188,0.0
53886.0,STARLINK-5028,PAYLOAD,2023-02-15 10:33:50,15.08836847,7.2e-05,53.22,304.3643,63.8963,296.2104,2.7283e-05,1.47e-06,0.0,0 STARLINK-5028,1 53886U 22119A   23046.44017166  .00000147  00000-0  27283-4 0  9997,2 53886  53.2200 304.3643 0000720  63.8963 296.2104 15.08836847 22863,6917.89,95.438,540.253,539.257,0.0
53886.0,STARLINK-5028,PAYLOAD,2023-02-15 16:55:23,15.08839107,7.82e-05,53.2181,303.1757,59.0878,301.0191,-4.2286e-06,-3.55e-06,0.0,0 STARLINK-5028,1 53886U 22119A   23046.70513198 -.00000355  00000-0 -42286-5 0  9996,2 53886  53.2181 303.1757 0000782  59.0878 301.0191 15.08839107 22485,6917.883,95.438,540.289,539.207,0.0
53886.0,STARLINK-5028,PAYLOAD,2023-02-15 21:41:31,15.08852474,7.68e-05,53.2196,302.284,89.6975,270.4106,9.4649e-05,1.219e-05,0.0,0 STARLINK-5028,1 53886U 22119A   23046.90383925  .00001219  00000-0  94649-4 0  9998,2 53886  53.2196 302.2840 0000768  89.6975 270.4106 15.08852474 22932,6917.842,95.437,540.239,539.176,0.0
53886.0,STARLINK-5028,PAYLOAD,2023-02-15 23:16:54,15.08862338,8.51e-05,53.2198,301.9868,97.3647,262.7441,5.1626e-08,-2.87e-06,0.0,0 STARLINK-5028,1 53886U 22119A   23046.97007682 -.00000287  00000-0  51626-7 0  9994,2 53886  53.2198 301.9868 0000851  97.3647 262.7441 15.08862338 22526,6917.812,95.436,540.266,539.088,0.0
53886.0,STARLINK-5028,PAYLOAD,2023-02-16 10:24:36,15.08855063,3.68e-05,53.2185,299.9048,80.5807,279.5226,-4.714e-05,-1.038e-05,0.0,0 STARLINK-5028,1 53886U 22119A   23047.43375732 -.00001038  00000-0 -47140-4 0  9999,2 53886  53.2185 299.9048 0000368  80.5807 279.5226 15.08855063 22594,6917.834,95.437,539.954,539.445,0.0
53886.0,STARLINK-5028,PAYLOAD,2023-02-16 16:46:10,15.0882752,7.61e-05,53.2186,298.716,81.8326,278.2753,-2.7859e-05,-7.31e-06,0.0,0 STARLINK-5028,1 53886U 22119A   23047.69873545 -.00000731  00000-0 -27859-4 0  9996,2 53886  53.2186 298.7160 0000761  81.8326 278.2753 15.08827520 22637,6917.919,95.438,540.31,539.257,0.0
53886.0,STARLINK-5028,PAYLOAD,2023-02-16 21:32:19,15.08832555,9.49e-05,53.219,297.8242,82.9808,277.1292,-1.3367e-06,-3.09e-06,0.0,0 STARLINK-5028,1 53886U 22119A   23047.89745295 -.00000309  00000-0 -13367-5 0  9999,2 53886  53.2190 297.8242 0000949  82.9808 277.1292 15.08832555 23088,6917.903,95.438,540.425,539.112,0.0
53886.0,STARLINK-5028,PAYLOAD,2023-02-17 02:18:28,15.08848044,6.75e-05,53.2184,296.929,82.6277,277.4792,-3.3592e-05,-8.22e-06,0.0,0 STARLINK-5028,1 53886U 22119A   23048.09616443 -.00000822  00000-0 -33592-4 0  9995,2 53886  53.2184 296.9290 0000675  82.6277 277.4792 15.08848044 22691,6917.856,95.437,540.188,539.254,0.0
53886.0,STARLINK-5028,PAYLOAD,2023-02-17 21:23:08,15.08821775,6.42e-05,53.2175,293.3593,72.1374,287.9688,-2.6208e-05,-7.04e-06,0.0,0 STARLINK-5028,1 53886U 22119A   23048.89106485 -.00000704  00000-0 -26208-4 0  9998,2 53886  53.2175 293.3593 0000642  72.1374 287.9688 15.08821775 23237,6917.936,95.439,540.245,539.357,0.0
53886.0,STARLINK-5028,PAYLOAD,2023-02-17 22:58:30,15.08836613,7.43e-05,53.2178,293.0617,83.6702,276.4375,-0.00019452,-3.382e-05,0.0,0 STARLINK-5028,1 53886U 22119A   23048.95730163 -.00003382  00000-0 -19452-3 0  9998,2 53886  53.2178 293.0617 0000743  83.6702 276.4375 15.08836613 22825,6917.891,95.438,540.27,539.242,0.0
53886.0,STARLINK-5028,PAYLOAD,2023-02-18 22:49:16,15.08845454,0.0001001,53.2179,288.6004,51.1173,308.9908,8.1719e-05,1.013e-05,0.0,0 STARLINK-5028,1 53886U 22119A   23049.95089065  .00001013  00000-0  81719-4 0  9990,2 53886  53.2179 288.6004 0001001  51.1173 308.9908 15.08845454 22978,6917.864,95.437,540.421,539.036,0.0
53886.0,STARLINK-5028,PAYLOAD,2023-02-19 08:21:35,15.08845914,0.0001235,53.2181,286.8157,42.0922,318.0165,4.604e-05,4.45e-06,0.0,0 STARLINK-5028,1 53886U 22119A   23050.34833097  .00000445  00000-0  46040-4 0  9993,2 53886  53.2181 286.8157 0001235  42.0922 318.0165 15.08845914 23452,6917.862,95.437,540.582,538.873,0.0
53886.0,STARLINK-5028,PAYLOAD,2023-02-19 19:29:18,15.08837521,9.64e-05,53.2179,284.7388,86.1034,274.0069,8.6578e-05,1.09e-05,0.0,0 STARLINK-5028,1 53886U 22119A   23050.81201596  .00001090  00000-0  86578-4 0  9995,2 53886  53.2179 284.7388 0000964  86.1034 274.0069 15.08837521 23104,6917.888,95.438,540.42,539.086,0.0
53886.0,STARLINK-5028,PAYLOAD,2023-02-20 00:15:26,15.08846259,9.76e-05,53.2181,283.8477,111.1127,248.9969,0.00011713,1.577e-05,0.0,0 STARLINK-5028,1 53886U 22119A   23051.01072838  .00001577  00000-0  11713-3 0  9991,2 53886  53.2181 283.8477 0000976 111.1127 248.9969 15.08846259 23131,6917.861,95.437,540.401,539.051,0.0
53886.0,STARLINK-5028,PAYLOAD,2023-02-20 08:12:23,15.08836671,0.0001092,53.2178,282.3617,99.1676,260.944,4.1891e-05,3.79e-06,0.0,0 STARLINK-5028,1 53886U 22119A   23051.34193770  .00000379  00000-0  41891-4 0  9996,2 53886  53.2178 282.3617 0001092  99.1676 260.9440 15.08836671 23181,6917.891,95.438,540.511,539.0,0.0
53886.0,STARLINK-5028,PAYLOAD,2023-02-21 01:41:37,15.08850675,9e-05,53.2174,279.0895,100.8568,259.2525,6.0916e-06,-1.91e-06,0.0,0 STARLINK-5028,1 53886U 22119A   23052.07056857 -.00000191  00000-0  60916-5 0  9994,2 53886  53.2174 279.0895 0000900 100.8568 259.2525 15.08850675 23292,6917.848,95.437,540.335,539.09,0.0
53886.0,STARLINK-5028,PAYLOAD,2023-02-21 08:03:09,15.08845027,8.91e-05,53.2169,277.8998,115.6668,244.4416,-3.5253e-05,-8.49e-06,0.0,0 STARLINK-5028,1 53886U 22119A   23052.33553161 -.00000849  00000-0 -35253-4 0  9999,2 53886  53.2169 277.8998 0000891 115.6668 244.4416 15.08845027 23751,6917.865,95.437,540.346,539.114,0.0
53886.0,STARLINK-5028,PAYLOAD,2023-02-21 19:10:52,15.08841771,0.0001124,53.2168,275.8174,88.4534,271.6587,-3.4213e-06,-3.42e-06,0.0,0 STARLINK-5028,1 53886U 22119A   23052.79921334 -.00000342  00000-0 -34213-5 0  9994,2 53886  53.2168 275.8174 0001124  88.4534 271.6587 15.08841771 23408,6917.875,95.437,540.518,538.962,0.0
53886.0,STARLINK-5028,PAYLOAD,2023-02-21 20:46:15,15.08846308,0.0001033,53.2167,275.52,84.0268,276.0841,-4.5616e-05,-1.014e-05,0.0,0 STARLINK-5028,1 53886U 22119A   23052.86545188 -.00001014  00000-0 -45616-4 0  9996,2 53886  53.2167 275.5200 0001033  84.0268 276.0841 15.08846308 23839,6917.861,95.437,540.441,539.011,0.0
53886.0,STARLINK-5028,PAYLOAD,2023-02-21 22:21:38,15.08847607,0.0001111,53.2175,275.2222,78.3864,281.7253,-2.3838e-05,-6.67e-06,0.0,0 STARLINK-5028,1 53886U 22119A   23052.93168993 -.00000667  00000-0 -23838-4 0  9994,2 53886  53.2175 275.2222 0001111  78.3864 281.7253 15.08847607 23848,6917.857,95.437,540.491,538.954,0.0
53886.0,STARLINK-5028,PAYLOAD,2023-02-22 22:12:26,15.08832945,0.0001167,53.2175,270.765,87.0331,273.0795,-7.3063e-05,-1.45e-05,0.0,0 STARLINK-5028,1 53886U 22119A   23053.92530203 -.00001450  00000-0 -73063-4 0  9997,2 53886  53.2175 270.7650 0001167  87.0331 273.0795 15.08832945 23990,6917.902,95.438,540.574,538.96,0.0
53886.0,STARLINK-5028,PAYLOAD,2023-02-23 20:27:49,15.08841921,0.0001081,53.2175,266.6,91.3565,268.7551,3.6127e-05,2.87e-06,0.0,0 STARLINK-5028,1 53886U 22119A   23054.85265183  .00000287  00000-0  36127-4 0  9997,2 53886  53.2175 266.6000 0001081  91.3565 268.7551 15.08841921 23710,6917.875,95.437,540.487,538.992,0.0
53886.0,STARLINK-5028,PAYLOAD,2023-02-24 01:13:57,15.08853028,0.0001264,53.2177,265.7072,109.0371,251.0758,0.0001183,1.596e-05,0.0,0 STARLINK-5028,1 53886U 22119A   23055.05136106  .00001596  00000-0  11830-3 0  9999,2 53886  53.2177 265.7072 0001264 109.0371 251.0758 15.08853028 23744,6917.841,95.437,540.58,538.831,0.0
53886.0,STARLINK-5028,PAYLOAD,2023-02-24 13:57:03,15.08842103,0.0001162,53.2173,263.3304,81.5075,278.6048,6.2624e-05,7.09e-06,0.0,0 STARLINK-5028,1 53886U 22119A   23055.58128914  .00000709  00000-0  62624-4 0  9998,2 53886  53.2173 263.3304 0001162  81.5075 278.6048 15.08842103 24249,6917.874,95.437,540.543,538.935,0.0
53886.0,STARLINK-5028,PAYLOAD,2023-02-24 17:07:49,15.08843602,0.0001132,53.2173,262.7354,86.5061,273.606,6.0094e-05,6.69e-06,0.0,0 STARLINK-5028,1 53886U 22119A   23055.71376781  .00000669  00000-0  60094-4 0  9994,2 53886  53.2173 262.7354 0001132  86.5061 273.6060 15.08843602 23843,6917.869,95.437,540.517,538.951,0.0
53886.0,STARLINK-5028,PAYLOAD,2023-02-24 20:18:35,15.0884363,0.0001159,53.217,262.1409,83.5899,276.5226,7.2748e-05,8.7e-06,0.0,0 STARLINK-5028,1 53886U 22119A   23055.84624692  .00000870  00000-0  72748-4 0  9998,2 53886  53.2170 262.1409 0001159  83.5899 276.5226 15.08843630 24286,6917.869,95.437,540.536,538.933,0.0
53886.0,STARLINK-5028,PAYLOAD,2023-02-25 13:47:51,15.08833273,0.0001243,53.2182,258.8657,102.8332,257.2799,-0.00015735,-2.791e-05,0.0,0 STARLINK-5028,1 53886U 22119A   23056.57490159 -.00002791  00000-0 -15735-3 0  9996,2 53886  53.2182 258.8657 0001243 102.8332 257.2799 15.08833273 24392,6917.901,95.438,540.626,538.906,0.0
